QZS-1R                  
1 49336U 21096A   24149.71073937 -.00000218  00000+0  00000+0 0  9990
2 49336  35.9058  90.8243 0755258 271.1304 275.5792  1.00265597  9497
